STARLINK-2161           
1 47747U 21017AB  23105.83827131  .00019867  00000+0  13482-2 0  9994
2 47747  53.0531 274.9890 0000860  69.3986 290.7095 15.06418088118308
STARLINK-2162           
1 47748U 21017AC  23106.49435923 -.00013672  00000+0 -90153-3 0  9993
2 47748  53.0536 272.0433 0000675  77.6310 282.4755 15.06369280117740
STARLINK-2163           
1 47749U 21017AD  23106.50909291 -.00023148  00000+0 -15415-2 0  9996
2 47749  53.0526 271.9742 0001325  61.9179 298.1944 15.06367784117744
STARLINK-2164           
1 47750U 21017AE  23105.88985388  .00034855  00000+0  23434-2 0  9994
2 47750  53.0529 274.7579 0001176  77.1232 282.9888 15.06462339118281
STARLINK-2168           
1 47751U 21017AF  23105.85391995  .00033224  00000+0  22352-2 0  9994
2 47751  53.0529 264.9132 0001190  75.5085 284.6036 15.06460870118420
STARLINK-2169           
1 47752U 21017AG  23106.48465513  .00009145  00000+0  63221-3 0  9999
2 47752  53.0534 277.0835 0000841 119.2398 240.8675 15.06389395117678
STARLINK-2170           
1 47753U 21017AH  23105.86313208  .00027169  00000+0  18335-2 0  9995
2 47753  53.0528 284.8738 0001067  70.6908 289.4197 15.06447754118187
STARLINK-2171           
1 47754U 21017AJ  23105.89995266  .00035096  00000+0  23573-2 0  9997
2 47754  53.0531 284.7098 0001267  85.7766 274.3368 15.06494914118151
STARLINK-2174           
1 47756U 21017AL  23105.89633275  .00033756  00000+0  22719-2 0  9990
2 47756  53.0530 284.7240 0001021  74.8058 285.3044 15.06438637118199
STARLINK-2175           
1 47757U 21017AM  23106.01422059  .00033495  00000+0  22512-2 0  9993
2 47757  53.0525 284.1971 0001138  83.1889 276.9229 15.06493654117531
STARLINK-2178           
1 47760U 21017AQ  23105.78114048  .00019100  00000+0  12961-2 0  9990
2 47760  53.0535 295.2413 0001554  66.9089 293.2064 15.06445226118018
STARLINK-2179           
1 47761U 21017AR  23105.87788118  .00032362  00000+0  21787-2 0  9997
2 47761  53.0531 284.8080 0001074  79.4133 280.6977 15.06448095118149
STARLINK-2180           
1 47762U 21017AS  23106.56761621  .00001496  00000+0  11933-3 0  9992
2 47762  53.0536 296.7219 0001767  91.1896 268.9295 15.06403904117407
STARLINK-2181           
1 47763U 21017AT  23105.78707020  .00033166  00000+0  22293-2 0  9998
2 47763  53.0543 290.2168 0001187  78.2466 281.8656 15.06495070118055
STARLINK-2182           
1 47764U 21017AU  23106.55287802  .00009625  00000+0  66423-3 0  9993
2 47764  53.0545 296.7795 0001740 113.2511 246.8661 15.06395613117408
STARLINK-2184           
1 47766U 21017AW  23106.57036172  .00005616  00000+0  39572-3 0  9990
2 47766  53.0533 296.6900 0000765 105.5544 254.5529 15.06386096117404
STARLINK-2185           
1 47767U 21017AX  23106.19855081 -.00024418  00000+0 -16272-2 0  9991
2 47767  53.0525 283.3675 0001004  79.8971 280.2131 15.06373583117561
STARLINK-2189           
1 47768U 21017AY  23106.57135002  .00006933  00000+0  48401-3 0  9998
2 47768  53.0538 297.0911 0001065 101.2237 258.8872 15.06387438117403
STARLINK-2192           
1 47769U 21017AZ  23106.44731758 -.00020224  00000+0 -13435-2 0  9994
2 47769  53.0529 262.2509 0001867 102.0505 258.0693 15.06376341117873
STARLINK-2193           
1 47770U 21017BA  23105.85802872  .00032462  00000+0  21830-2 0  9999
2 47770  53.0531 279.9016 0001071  75.1081 285.0027 15.06488519118235
STARLINK-2194           
1 47771U 21017BB  23106.20083114 -.00020680  00000+0 -13733-2 0  9994
2 47771  53.0527 278.3562 0002001  57.9626 302.1557 15.06402466117636
STARLINK-2195           
1 47772U 21017BC  23106.45560267 -.00050314  00000+0 -33870-2 0  9992
2 47772  53.0498 292.2229 0001266  57.3170 302.7941 15.06354831117454
STARLINK-2196           
1 47773U 21017BD  23106.51831236  .00000450  00000+0  49150-4 0  9991
2 47773  53.0530 291.9317 0001186 102.7591 257.3530 15.06381999117464
STARLINK-2197           
1 47774U 21017BE  23106.51463961  .00003541  00000+0  25646-3 0  9995
2 47774  53.0530 291.9486 0001150  91.7746 268.3375 15.06401677117467
STARLINK-2198           
1 47775U 21017BF  23105.79586708  .00031820  00000+0  21426-2 0  9992
2 47775  53.0532 295.1781 0001039  79.4149 280.6957 15.06449724118043
STARLINK-2209           
1 47776U 21017BG  23105.75624153  .00031975  00000+0  21531-2 0  9994
2 47776  53.0528 285.3522 0000898  70.1946 289.9140 15.06446230118144
STARLINK-2210           
1 47777U 21017BH  23105.82627112  .00034261  00000+0  23043-2 0  9992
2 47777  53.0533 285.0394 0000813  55.0833 305.0232 15.06456399118159
STARLINK-2211           
1 47778U 21017BJ  23106.19118601  .00002339  00000+0  17586-3 0  9999
2 47778  53.0520 283.3986 0002051  72.5462 287.5751 15.06407024117567
STARLINK-2212           
1 47779U 21017BK  23106.14221689  .00121829  00000+0  39733-2 0  9999
2 47779  53.0447 252.2357 0008920 264.4641  95.5341 15.30852906118007
STARLINK-2213           
1 47780U 21017BL  23106.48237670  .00003306  00000+0  24080-3 0  9994
2 47780  53.0526 282.0930 0001531  93.7555 266.3609 15.06386917117611
STARLINK-2223           
1 47781U 21017BM  23106.51554904  .00005593  00000+0  39423-3 0  9998
2 47781  53.0534 281.9476 0000456 273.1039  86.9898 15.06380158117606
STARLINK-2257           
1 47787U 21018A   23105.87051123  .00038655  00000+0  25953-2 0  9995
2 47787  53.0544 324.8425 0001083  81.0670 279.0442 15.06463604117000
STARLINK-2314           
1 47788U 21018B   23106.54547275 -.00003354  00000+0 -20650-3 0  9999
2 47788  53.0548 296.8105 0000108 350.2159   9.8828 15.06390498117128
STARLINK-2315           
1 47789U 21018C   23106.52843850  .00011898  00000+0  81639-3 0  9990
2 47789  53.0533 301.8866 0001678  89.4201 270.6981 15.06397088117047
STARLINK-2319           
1 47790U 21018D   23106.50357208  .00001759  00000+0  13696-3 0  9990
2 47790  53.0527 291.9998 0001353  49.2779 310.8327 15.06388843117186
STARLINK-2322           
1 47791U 21018E   23105.85942677  .00030453  00000+0  20505-2 0  9997
2 47791  53.0538 324.8927 0001139  93.5132 266.5987 15.06472566117011
STARLINK-2334           
1 47792U 21018F   23105.87235382  .00029463  00000+0  19861-2 0  9990
2 47792  53.0541 304.8335 0001311  82.7113 277.4025 15.06446437117290
STARLINK-2338           
1 47793U 21018G   23106.55057467  .00024118  00000+0  16321-2 0  9993
2 47793  53.0539 301.7900 0001633  74.7682 285.3487 15.06408560117049
STARLINK-2341           
1 47794U 21018H   23105.82443464  .00030495  00000+0  20553-2 0  9996
2 47794  53.0540 305.0494 0000968  65.3467 294.7622 15.06435806117288
STARLINK-2347           
1 47795U 21018J   23105.81337636  .00030372  00000+0  20465-2 0  9995
2 47795  53.0532 305.0973 0000700  75.9136 284.1931 15.06447635117331
STARLINK-2373           
1 47796U 21018K   23106.55793737 -.00003361  00000+0 -20690-3 0  9997
2 47796  53.0533 301.7539 0001255  77.5287 282.5842 15.06385566117040
STARLINK-2377           
1 47797U 21018L   23105.86452922  .00019712  00000+0  13379-2 0  9999
2 47797  53.0551 329.8707 0001014 102.2032 257.9071 15.06416873116939
STARLINK-2379           
1 47798U 21018M   23105.90549517  .00030032  00000+0  20220-2 0  9993
2 47798  53.0543 304.6842 0001120  80.6242 279.4873 15.06481870117290
STARLINK-2380           
1 47799U 21018N   23106.56528960 -.00000820  00000+0 -36134-4 0  9993
2 47799  53.0540 301.7259 0001849 119.7220 240.3953 15.06381714117041
STARLINK-2381           
1 47800U 21018P   23106.25570720  .00006995  00000+0  48781-3 0  9990
2 47800  53.0549 303.1162 0000943 100.7856 259.3239 15.06414879117003
STARLINK-2382           
1 47801U 21018Q   23106.55564969  .00004794  00000+0  34055-3 0  9996
2 47801  53.0534 306.8482 0000861 114.4382 245.6697 15.06397664116971
STARLINK-2383           
1 47802U 21018R   23106.00458281  .00032981  00000+0  22195-2 0  9996
2 47802  53.0543 329.2391 0000939  89.3109 270.7988 15.06453226116613
STARLINK-2384           
1 47803U 21018S   23106.53229395  .00063581  00000+0  42528-2 0  9999
2 47803  53.0532 301.8707 0001339  75.2468 284.8669 15.06367053117048
STARLINK-2385           
1 47804U 21018T   23105.81706832  .00032751  00000+0  22046-2 0  9994
2 47804  53.0531 305.0830 0001263  79.6751 280.4380 15.06447126117277
STARLINK-2386           
1 47805U 21018U   23106.24834788 -.00006411  00000+0 -41186-3 0  9998
2 47805  53.0534 303.3870 0000955 111.0253 249.0838 15.06401689116992
STARLINK-2387           
1 47806U 21018V   23105.85438926  .00032321  00000+0  21756-2 0  9996
2 47806  53.0539 319.9228 0000869  76.9768 283.1318 15.06455157117130
STARLINK-2388           
1 47807U 21018W   23106.50725546  .00017560  00000+0  11942-2 0  9991
2 47807  53.0528 291.9820 0001218  90.3616 269.7513 15.06418455117178
STARLINK-2389           
1 47808U 21018X   23105.87281661  .00033456  00000+0  22522-2 0  9994
2 47808  53.0540 319.8311 0001192  74.2187 285.8933 15.06434906117133
STARLINK-2390           
1 47809U 21018Y   23105.87689808  .00037253  00000+0  25003-2 0  9996
2 47809  53.0542 324.8016 0001189  93.0298 267.0827 15.06494297117067
STARLINK-2391           
1 47810U 21018Z   23105.90274892  .00018194  00000+0  12368-2 0  9998
2 47810  53.0559 334.6962 0001269 121.3706 238.7407 15.06411274116921
STARLINK-2392           
1 47811U 21018AA  23105.80969872  .00033779  00000+0  22730-2 0  9997
2 47811  53.0526 305.1122 0001146  84.2652 275.8467 15.06444669117336
STARLINK-2393           
1 47812U 21018AB  23105.91378945  .00036420  00000+0  24450-2 0  9992
2 47812  53.0546 334.6513 0001118  93.5253 266.5864 15.06495447116864
STARLINK-2394           
1 47813U 21018AC  23105.83178264  .00032591  00000+0  21921-2 0  9991
2 47813  53.0532 305.0140 0000722  54.5541 305.5515 15.06478362117332
STARLINK-2395           
1 47814U 21018AD  23105.85574843  .00032346  00000+0  21766-2 0  9992
2 47814  53.0545 324.9110 0000940  76.5567 283.5526 15.06465793117069
STARLINK-2396           
1 47815U 21018AE  23105.88755932  .00026072  00000+0  17605-2 0  9992
2 47815  53.0543 319.7654 0000979  83.3454 276.7646 15.06447918117073
